STARLINK-31078          
1 58638U 23203W   26068.06535435 -.00001010  00000+0 -27170-4 0  9997
2 58638  43.0038  70.8133 0001097 233.2401 126.8350 15.27582184123468
FLOCK 4G-24             
1 62637U 25009AE  26068.72509072  .00010513  00000+0  38996-3 0  9991
2 62637  97.4061 151.5140 0001802 280.2808  79.8228 15.27784978 63732
